[{"OBJECT_NAME":"STARLINK-30094","OBJECT_ID":"2023-056V","EPOCH":"2026-03-09T22:00:01.999584","MEAN_MOTION":15.26730581,"ECCENTRICITY":0.00016161,"INCLINATION":42.9993,"RA_OF_ASC_NODE":207.0517,"ARG_OF_PERICENTER":283.1373,"MEAN_ANOMALY":319.4539,"EPHEMERIS_TYPE":0,"CLASSIFICATION_TYPE":"U","NORAD_CAT_ID":56305,"ELEMENT_SET_NO":999,"REV_AT_EPOCH":578,"BSTAR":0.001531911,"MEAN_MOTION_DOT":0.00041049,"MEAN_MOTION_DDOT":0},{"OBJECT_NAME":"STARLINK-36554","OBJECT_ID":"2026-012K","EPOCH":"2026-03-08T17:06:15.871680","MEAN_MOTION":15.27591469,"ECCENTRICITY":6.955e-5,"INCLINATION":42.9934,"RA_OF_ASC_NODE":319.8184,"ARG_OF_PERICENTER":339.2059,"MEAN_ANOMALY":20.8765,"EPHEMERIS_TYPE":0,"CLASSIFICATION_TYPE":"U","NORAD_CAT_ID":67502,"ELEMENT_SET_NO":999,"REV_AT_EPOCH":761,"BSTAR":0.0011969118,"MEAN_MOTION_DOT":0.00032833,"MEAN_MOTION_DDOT":0}]
